SOYUZ-MS 28             
1 66664U 25275A   25343.44535137  .00013761  00000+0  25353-3 0  9996
2 66664  51.6308 158.7912 0003352 224.7147 135.3571 15.49444513  1934
1998-067XS              
1 66906U 98067XS  25343.50652909  .00033864  00000+0  59212-3 0  9995
2 66906  51.6300 158.4502 0003981 188.2752 171.8172 15.50312686  1110
1998-067XT              
1 66907U 98067XT  25343.50529067  .00076342  00000+0  12921-2 0  9997
2 66907  51.6307 158.4423 0004804 208.5081 151.5646 15.50864429  1114
1998-067XU              
1 66908U 98067XU  25343.50508826  .00076850  00000+0  12986-2 0  9993
2 66908  51.6299 158.4410 0005005 206.9098 153.1632 15.50906956  1110
SILVERSAT               
1 66909U 98067XV  25343.50492663  .00084543  00000+0  14217-2 0  9992
2 66909  51.6302 158.4394 0004874 208.8709 151.2011 15.51001422  1115
1998-067XW              
1 66910U 98067XW  25342.92393848  .00070418  00000+0  11827-2 0  9994
2 66910  51.6296 161.3100 0005924 189.6176 170.4701 15.51111527  1025
1998-067XX              
1 66911U 98067XX  25343.11695648  .00085582  00000+0  14246-2 0  9996
2 66911  51.6296 160.3494 0005703 191.2268 168.8595 15.51276485  1046
1998-067XY              
1 66912U 98067XY  25342.79680750  .00056065  00000+0  96272-3 0  9992
2 66912  51.6301 161.9610 0005044 202.8278 157.2488 15.50590071   994
